<?xml version='1.0' encoding='UTF-8'?>
<gpx version="1.1" creator="https://www.komoot.de" xmlns="http://www.topografix.com/GPX/1/1" xmlns:xsi="http://www.w3.org/2001/XMLSchema-instance" xsi:schemaLocation="http://www.topografix.com/GPX/1/1 http://www.topografix.com/GPX/1/1/gpx.xsd">
  <metadata>
    <name>Luleburgaz nach Kemalpasa Saray</name>
    <author>
      <link href="https://www.komoot.de">
        <text>komoot</text>
        <type>text/html</type>
      </link>
    </author>
  </metadata>
  <trk>
    <name>Luleburgaz nach Kemalpasa Saray</name>
    <trkseg>
      <trkpt lat="41.407652" lon="27.346437">
        <ele>61.334299</ele>
        <time>2026-05-12T07:32:21.207Z</time>
      </trkpt>
      <trkpt lat="41.407652" lon="27.346437">
        <ele>61.334299</ele>
        <time>2026-05-12T07:32:21.221Z</time>
      </trkpt>
      <trkpt lat="41.407652" lon="27.346437">
        <ele>61.334299</ele>
        <time>2026-05-12T07:32:21.221Z</time>
      </trkpt>
      <trkpt lat="41.407611" lon="27.347108">
        <ele>61.334299</ele>
        <time>2026-05-12T07:32:32.022Z</time>
      </trkpt>
      <trkpt lat="41.407571" lon="27.347779">
        <ele>61.450926</ele>
        <time>2026-05-12T07:32:42.825Z</time>
      </trkpt>
      <trkpt lat="41.407611" lon="27.347808">
        <ele>61.498997</ele>
        <time>2026-05-12T07:32:44.032Z</time>
      </trkpt>
      <trkpt lat="41.407636" lon="27.347886">
        <ele>61.566166</ele>
        <time>2026-05-12T07:32:46.121Z</time>
      </trkpt>
      <trkpt lat="41.407638" lon="27.348122">
        <ele>61.753057</ele>
        <time>2026-05-12T07:32:50.771Z</time>
      </trkpt>
      <trkpt lat="41.407620" lon="27.348366">
        <ele>61.947204</ele>
        <time>2026-05-12T07:32:55.290Z</time>
      </trkpt>
      <trkpt lat="41.407578" lon="27.348938">
        <ele>62.402316</ele>
        <time>2026-05-12T07:33:04.564Z</time>
      </trkpt>
      <trkpt lat="41.407587" lon="27.349574">
        <ele>62.906031</ele>
        <time>2026-05-12T07:33:13.596Z</time>
      </trkpt>
      <trkpt lat="41.407590" lon="27.349688">
        <ele>62.996359</ele>
        <time>2026-05-12T07:33:15.049Z</time>
      </trkpt>
      <trkpt lat="41.407617" lon="27.349847">
        <ele>63.125452</ele>
        <time>2026-05-12T07:33:17.025Z</time>
      </trkpt>
      <trkpt lat="41.407629" lon="27.349916">
        <ele>63.181540</ele>
        <time>2026-05-12T07:33:17.866Z</time>
      </trkpt>
      <trkpt lat="41.407645" lon="27.350002">
        <ele>63.231180</ele>
        <time>2026-05-12T07:33:18.899Z</time>
      </trkpt>
      <trkpt lat="41.407753" lon="27.350249">
        <ele>63.205367</ele>
        <time>2026-05-12T07:33:22.316Z</time>
      </trkpt>
      <trkpt lat="41.407987" lon="27.350624">
        <ele>63.161324</ele>
        <time>2026-05-12T07:33:28.015Z</time>
      </trkpt>
      <trkpt lat="41.408088" lon="27.350787">
        <ele>63.142234</ele>
        <time>2026-05-12T07:33:30.513Z</time>
      </trkpt>
      <trkpt lat="41.408354" lon="27.351203">
        <ele>63.092879</ele>
        <time>2026-05-12T07:33:37.712Z</time>
      </trkpt>
      <trkpt lat="41.408846" lon="27.350603">
        <ele>63.027454</ele>
        <time>2026-05-12T07:33:49.431Z</time>
      </trkpt>
      <trkpt lat="41.408869" lon="27.350711">
        <ele>63.053577</ele>
        <time>2026-05-12T07:33:55.344Z</time>
      </trkpt>
      <trkpt lat="41.408869" lon="27.350711">
        <ele>63.053577</ele>
        <time>2026-05-12T07:33:55.358Z</time>
      </trkpt>
      <trkpt lat="41.408865" lon="27.350721">
        <ele>63.056214</ele>
        <time>2026-05-12T07:33:55.540Z</time>
      </trkpt>
      <trkpt lat="41.408907" lon="27.350863">
        <ele>63.091731</ele>
        <time>2026-05-12T07:33:57.988Z</time>
      </trkpt>
      <trkpt lat="41.408973" lon="27.351086">
        <ele>63.147513</ele>
        <time>2026-05-12T07:34:01.833Z</time>
      </trkpt>
      <trkpt lat="41.409187" lon="27.351816">
        <ele>63.329884</ele>
        <time>2026-05-12T07:34:14.403Z</time>
      </trkpt>
      <trkpt lat="41.409209" lon="27.351944">
        <ele>63.360439</ele>
        <time>2026-05-12T07:34:16.509Z</time>
      </trkpt>
      <trkpt lat="41.409209" lon="27.352288">
        <ele>63.440481</ele>
        <time>2026-05-12T07:34:22.026Z</time>
      </trkpt>
      <trkpt lat="41.409166" lon="27.352588">
        <ele>63.511548</ele>
        <time>2026-05-12T07:34:26.925Z</time>
      </trkpt>
      <trkpt lat="41.409016" lon="27.353489">
        <ele>63.676167</ele>
        <time>2026-05-12T07:34:41.726Z</time>
      </trkpt>
      <trkpt lat="41.409101" lon="27.353532">
        <ele>63.695041</ele>
        <time>2026-05-12T07:34:43.671Z</time>
      </trkpt>
      <trkpt lat="41.409338" lon="27.353768">
        <ele>63.756450</ele>
        <time>2026-05-12T07:34:49.996Z</time>
      </trkpt>
      <trkpt lat="41.409380" lon="27.353833">
        <ele>63.769809</ele>
        <time>2026-05-12T07:34:51.372Z</time>
      </trkpt>
      <trkpt lat="41.409724" lon="27.354090">
        <ele>63.851671</ele>
        <time>2026-05-12T07:34:59.804Z</time>
      </trkpt>
      <trkpt lat="41.409650" lon="27.354033">
        <ele>63.869413</ele>
        <time>2026-05-12T07:35:01.631Z</time>
      </trkpt>
      <trkpt lat="41.409729" lon="27.354093">
        <ele>63.888288</ele>
        <time>2026-05-12T07:35:03.157Z</time>
      </trkpt>
      <trkpt lat="41.409853" lon="27.354191">
        <ele>63.918213</ele>
        <time>2026-05-12T07:35:05.611Z</time>
      </trkpt>
      <trkpt lat="41.410125" lon="27.354405">
        <ele>63.841003</ele>
        <time>2026-05-12T07:35:10.949Z</time>
      </trkpt>
      <trkpt lat="41.410168" lon="27.354435">
        <ele>63.810675</ele>
        <time>2026-05-12T07:35:11.805Z</time>
      </trkpt>
      <trkpt lat="41.410557" lon="27.354735">
        <ele>63.529853</ele>
        <time>2026-05-12T07:35:19.127Z</time>
      </trkpt>
      <trkpt lat="41.411035" lon="27.355342">
        <ele>63.117354</ele>
        <time>2026-05-12T07:35:29.116Z</time>
      </trkpt>
      <trkpt lat="41.411390" lon="27.355837">
        <ele>62.806374</ele>
        <time>2026-05-12T07:35:36.670Z</time>
      </trkpt>
      <trkpt lat="41.411464" lon="27.355935">
        <ele>62.764640</ele>
        <time>2026-05-12T07:35:38.244Z</time>
      </trkpt>
      <trkpt lat="41.411315" lon="27.356297">
        <ele>62.640720</ele>
        <time>2026-05-12T07:35:42.962Z</time>
      </trkpt>
      <trkpt lat="41.411201" lon="27.356602">
        <ele>62.538454</ele>
        <time>2026-05-12T07:35:46.918Z</time>
      </trkpt>
      <trkpt lat="41.411197" lon="27.356804">
        <ele>62.477813</ele>
        <time>2026-05-12T07:35:49.291Z</time>
      </trkpt>
      <trkpt lat="41.411232" lon="27.356938">
        <ele>62.435231</ele>
        <time>2026-05-12T07:35:50.960Z</time>
      </trkpt>
      <trkpt lat="41.411413" lon="27.357357">
        <ele>62.290124</ele>
        <time>2026-05-12T07:35:56.866Z</time>
      </trkpt>
      <trkpt lat="41.411553" lon="27.357761">
        <ele>62.156568</ele>
        <time>2026-05-12T07:36:02.669Z</time>
      </trkpt>
      <trkpt lat="41.411793" lon="27.358527">
        <ele>62.183787</ele>
        <time>2026-05-12T07:36:14.305Z</time>
      </trkpt>
      <trkpt lat="41.412020" lon="27.359027">
        <ele>62.254380</ele>
        <time>2026-05-12T07:36:22.081Z</time>
      </trkpt>
      <trkpt lat="41.412284" lon="27.359136">
        <ele>62.298888</ele>
        <time>2026-05-12T07:36:26.951Z</time>
      </trkpt>
      <trkpt lat="41.412539" lon="27.359582">
        <ele>62.366624</ele>
        <time>2026-05-12T07:36:34.236Z</time>
      </trkpt>
      <trkpt lat="41.412590" lon="27.359692">
        <ele>62.382244</ele>
        <time>2026-05-12T07:36:35.951Z</time>
      </trkpt>
      <trkpt lat="41.412677" lon="27.359883">
        <ele>62.432545</ele>
        <time>2026-05-12T07:36:39.041Z</time>
      </trkpt>
      <trkpt lat="41.412927" lon="27.360905">
        <ele>62.762992</ele>
        <time>2026-05-12T07:36:54.058Z</time>
      </trkpt>
      <trkpt lat="41.412969" lon="27.361149">
        <ele>62.839947</ele>
        <time>2026-05-12T07:36:57.614Z</time>
      </trkpt>
      <trkpt lat="41.412968" lon="27.361306">
        <ele>62.888209</ele>
        <time>2026-05-12T07:36:59.890Z</time>
      </trkpt>
      <trkpt lat="41.412972" lon="27.363190">
        <ele>64.047957</ele>
        <time>2026-05-12T07:37:27.775Z</time>
      </trkpt>
      <trkpt lat="41.412972" lon="27.363242">
        <ele>64.091566</ele>
        <time>2026-05-12T07:37:28.572Z</time>
      </trkpt>
      <trkpt lat="41.412970" lon="27.363412">
        <ele>64.234151</ele>
        <time>2026-05-12T07:37:31.351Z</time>
      </trkpt>
      <trkpt lat="41.412958" lon="27.364765">
        <ele>65.654077</ele>
        <time>2026-05-12T07:37:55.869Z</time>
      </trkpt>
      <trkpt lat="41.412957" lon="27.364898">
        <ele>65.906234</ele>
        <time>2026-05-12T07:37:58.389Z</time>
      </trkpt>
      <trkpt lat="41.412957" lon="27.365001">
        <ele>66.101505</ele>
        <time>2026-05-12T07:38:00.372Z</time>
      </trkpt>
      <trkpt lat="41.412957" lon="27.365210">
        <ele>66.497732</ele>
        <time>2026-05-12T07:38:04.540Z</time>
      </trkpt>
      <trkpt lat="41.412957" lon="27.365249">
        <ele>66.571669</ele>
        <time>2026-05-12T07:38:05.355Z</time>
      </trkpt>
      <trkpt lat="41.412959" lon="27.365943">
        <ele>67.887382</ele>
        <time>2026-05-12T07:38:20.600Z</time>
      </trkpt>
      <trkpt lat="41.412959" lon="27.366054">
        <ele>68.097819</ele>
        <time>2026-05-12T07:38:23.242Z</time>
      </trkpt>
      <trkpt lat="41.412956" lon="27.366365">
        <ele>68.687469</ele>
        <time>2026-05-12T07:38:30.570Z</time>
      </trkpt>
      <trkpt lat="41.412956" lon="27.366412">
        <ele>68.776573</ele>
        <time>2026-05-12T07:38:31.695Z</time>
      </trkpt>
      <trkpt lat="41.412950" lon="27.366998">
        <ele>69.921560</ele>
        <time>2026-05-12T07:38:44.495Z</time>
      </trkpt>
      <trkpt lat="41.412944" lon="27.367670">
        <ele>71.413788</ele>
        <time>2026-05-12T07:39:00.928Z</time>
      </trkpt>
      <trkpt lat="41.412944" lon="27.368446">
        <ele>73.136833</ele>
        <time>2026-05-12T07:39:20.123Z</time>
      </trkpt>
      <trkpt lat="41.412914" lon="27.369825">
        <ele>75.549639</ele>
        <time>2026-05-12T07:39:48.920Z</time>
      </trkpt>
      <trkpt lat="41.412898" lon="27.369983">
        <ele>75.709393</ele>
        <time>2026-05-12T07:39:51.941Z</time>
      </trkpt>
      <trkpt lat="41.412894" lon="27.370163">
        <ele>75.889834</ele>
        <time>2026-05-12T07:39:55.267Z</time>
      </trkpt>
      <trkpt lat="41.412881" lon="27.370580">
        <ele>76.308032</ele>
        <time>2026-05-12T07:40:02.440Z</time>
      </trkpt>
      <trkpt lat="41.412865" lon="27.371269">
        <ele>76.998747</ele>
        <time>2026-05-12T07:40:13.104Z</time>
      </trkpt>
      <trkpt lat="41.412855" lon="27.371507">
        <ele>77.237600</ele>
        <time>2026-05-12T07:40:16.580Z</time>
      </trkpt>
      <trkpt lat="41.412848" lon="27.372146">
        <ele>77.573935</ele>
        <time>2026-05-12T07:40:25.928Z</time>
      </trkpt>
      <trkpt lat="41.412855" lon="27.372972">
        <ele>77.854724</ele>
        <time>2026-05-12T07:40:37.733Z</time>
      </trkpt>
      <trkpt lat="41.412835" lon="27.373262">
        <ele>77.953715</ele>
        <time>2026-05-12T07:40:41.812Z</time>
      </trkpt>
      <trkpt lat="41.412820" lon="27.373304">
        <ele>77.969528</ele>
        <time>2026-05-12T07:40:42.474Z</time>
      </trkpt>
      <trkpt lat="41.412837" lon="27.373365">
        <ele>77.991648</ele>
        <time>2026-05-12T07:40:43.373Z</time>
      </trkpt>
      <trkpt lat="41.412868" lon="27.373382">
        <ele>78.006841</ele>
        <time>2026-05-12T07:40:44.002Z</time>
      </trkpt>
      <trkpt lat="41.412989" lon="27.373520">
        <ele>78.079008</ele>
        <time>2026-05-12T07:40:47.010Z</time>
      </trkpt>
      <trkpt lat="41.413408" lon="27.374207">
        <ele>78.429725</ele>
        <time>2026-05-12T07:40:59.544Z</time>
      </trkpt>
      <trkpt lat="41.413595" lon="27.374484">
        <ele>78.599283</ele>
        <time>2026-05-12T07:41:04.625Z</time>
      </trkpt>
      <trkpt lat="41.414923" lon="27.376394">
        <ele>80.431124</ele>
        <time>2026-05-12T07:41:44.545Z</time>
      </trkpt>
      <trkpt lat="41.416004" lon="27.377949">
        <ele>83.238925</ele>
        <time>2026-05-12T07:42:26.044Z</time>
      </trkpt>
      <trkpt lat="41.416657" lon="27.378901">
        <ele>85.507706</ele>
        <time>2026-05-12T07:42:53.669Z</time>
      </trkpt>
      <trkpt lat="41.416843" lon="27.379174">
        <ele>86.156324</ele>
        <time>2026-05-12T07:43:01.656Z</time>
      </trkpt>
      <trkpt lat="41.416951" lon="27.379332">
        <ele>86.335021</ele>
        <time>2026-05-12T07:43:06.249Z</time>
      </trkpt>
      <trkpt lat="41.417195" lon="27.379688">
        <ele>86.724615</ele>
        <time>2026-05-12T07:43:16.403Z</time>
      </trkpt>
      <trkpt lat="41.417467" lon="27.380176">
        <ele>87.215783</ele>
        <time>2026-05-12T07:43:27.749Z</time>
      </trkpt>
      <trkpt lat="41.417661" lon="27.380855">
        <ele>87.802738</ele>
        <time>2026-05-12T07:43:38.362Z</time>
      </trkpt>
      <trkpt lat="41.417669" lon="27.380884">
        <ele>87.827699</ele>
        <time>2026-05-12T07:43:38.752Z</time>
      </trkpt>
      <trkpt lat="41.418033" lon="27.382762">
        <ele>87.237519</ele>
        <time>2026-05-12T07:44:00.062Z</time>
      </trkpt>
      <trkpt lat="41.418092" lon="27.383082">
        <ele>87.058489</ele>
        <time>2026-05-12T07:44:03.751Z</time>
      </trkpt>
      <trkpt lat="41.418427" lon="27.385267">
        <ele>87.004908</ele>
        <time>2026-05-12T07:44:32.880Z</time>
      </trkpt>
      <trkpt lat="41.418569" lon="27.386271">
        <ele>87.285598</ele>
        <time>2026-05-12T07:44:47.869Z</time>
      </trkpt>
      <trkpt lat="41.418659" lon="27.386947">
        <ele>87.658045</ele>
        <time>2026-05-12T07:44:57.789Z</time>
      </trkpt>
      <trkpt lat="41.418767" lon="27.387390">
        <ele>87.910742</ele>
        <time>2026-05-12T07:45:04.427Z</time>
      </trkpt>
      <trkpt lat="41.418895" lon="27.387754">
        <ele>88.128834</ele>
        <time>2026-05-12T07:45:10.347Z</time>
      </trkpt>
      <trkpt lat="41.419094" lon="27.388554">
        <ele>89.184816</ele>
        <time>2026-05-12T07:45:24.652Z</time>
      </trkpt>
      <trkpt lat="41.419130" lon="27.388727">
        <ele>89.565300</ele>
        <time>2026-05-12T07:45:28.050Z</time>
      </trkpt>
      <trkpt lat="41.419157" lon="27.388879">
        <ele>89.896340</ele>
        <time>2026-05-12T07:45:31.111Z</time>
      </trkpt>
      <trkpt lat="41.419834" lon="27.392618">
        <ele>99.147115</ele>
        <time>2026-05-12T07:47:06.440Z</time>
      </trkpt>
      <trkpt lat="41.420334" lon="27.395402">
        <ele>106.265812</ele>
        <time>2026-05-12T07:48:15.258Z</time>
      </trkpt>
      <trkpt lat="41.420673" lon="27.397298">
        <ele>110.199121</ele>
        <time>2026-05-12T07:49:01.551Z</time>
      </trkpt>
      <trkpt lat="41.420822" lon="27.397930">
        <ele>110.064479</ele>
        <time>2026-05-12T07:49:11.515Z</time>
      </trkpt>
      <trkpt lat="41.420954" lon="27.398412">
        <ele>109.391713</ele>
        <time>2026-05-12T07:49:17.246Z</time>
      </trkpt>
      <trkpt lat="41.421256" lon="27.399289">
        <ele>108.126455</ele>
        <time>2026-05-12T07:49:26.498Z</time>
      </trkpt>
      <trkpt lat="41.423256" lon="27.403959">
        <ele>95.387289</ele>
        <time>2026-05-12T07:50:15.984Z</time>
      </trkpt>
      <trkpt lat="41.423842" lon="27.405345">
        <ele>97.314562</ele>
        <time>2026-05-12T07:50:47.302Z</time>
      </trkpt>
      <trkpt lat="41.424263" lon="27.406353">
        <ele>99.289766</ele>
        <time>2026-05-12T07:51:15.560Z</time>
      </trkpt>
      <trkpt lat="41.424867" lon="27.407792">
        <ele>103.411056</ele>
        <time>2026-05-12T07:51:54.811Z</time>
      </trkpt>
      <trkpt lat="41.425594" lon="27.409491">
        <ele>108.452163</ele>
        <time>2026-05-12T07:52:43.359Z</time>
      </trkpt>
      <trkpt lat="41.427032" lon="27.412840">
        <ele>117.497061</ele>
        <time>2026-05-12T07:54:14.969Z</time>
      </trkpt>
      <trkpt lat="41.427101" lon="27.412936">
        <ele>117.745559</ele>
        <time>2026-05-12T07:54:17.945Z</time>
      </trkpt>
      <trkpt lat="41.427263" lon="27.413283">
        <ele>118.509399</ele>
        <time>2026-05-12T07:54:26.901Z</time>
      </trkpt>
      <trkpt lat="41.428845" lon="27.415777">
        <ele>123.248571</ele>
        <time>2026-05-12T07:55:29.722Z</time>
      </trkpt>
      <trkpt lat="41.429366" lon="27.416756">
        <ele>123.595933</ele>
        <time>2026-05-12T07:55:47.190Z</time>
      </trkpt>
      <trkpt lat="41.430233" lon="27.418616">
        <ele>123.504035</ele>
        <time>2026-05-12T07:56:13.372Z</time>
      </trkpt>
      <trkpt lat="41.430417" lon="27.419060">
        <ele>123.424472</ele>
        <time>2026-05-12T07:56:19.306Z</time>
      </trkpt>
      <trkpt lat="41.430459" lon="27.419142">
        <ele>123.408898</ele>
        <time>2026-05-12T07:56:20.507Z</time>
      </trkpt>
      <trkpt lat="41.430593" lon="27.419809">
        <ele>123.300601</ele>
        <time>2026-05-12T07:56:29.043Z</time>
      </trkpt>
      <trkpt lat="41.430245" lon="27.423559">
        <ele>123.133084</ele>
        <time>2026-05-12T07:57:24.782Z</time>
      </trkpt>
      <trkpt lat="41.430207" lon="27.424224">
        <ele>122.442794</ele>
        <time>2026-05-12T07:57:31.876Z</time>
      </trkpt>
      <trkpt lat="41.430175" lon="27.425131">
        <ele>121.025173</ele>
        <time>2026-05-12T07:57:40.367Z</time>
      </trkpt>
      <trkpt lat="41.430182" lon="27.425717">
        <ele>118.801378</ele>
        <time>2026-05-12T07:57:45.503Z</time>
      </trkpt>
      <trkpt lat="41.430223" lon="27.426344">
        <ele>116.413264</ele>
        <time>2026-05-12T07:57:50.889Z</time>
      </trkpt>
      <trkpt lat="41.430582" lon="27.432281">
        <ele>93.599873</ele>
        <time>2026-05-12T07:58:42.261Z</time>
      </trkpt>
      <trkpt lat="41.430659" lon="27.433600">
        <ele>92.859541</ele>
        <time>2026-05-12T07:58:56.381Z</time>
      </trkpt>
      <trkpt lat="41.430665" lon="27.433719">
        <ele>92.792800</ele>
        <time>2026-05-12T07:58:58.123Z</time>
      </trkpt>
      <trkpt lat="41.430670" lon="27.433830">
        <ele>92.730573</ele>
        <time>2026-05-12T07:58:59.922Z</time>
      </trkpt>
      <trkpt lat="41.430719" lon="27.434812">
        <ele>93.041543</ele>
        <time>2026-05-12T07:59:18.953Z</time>
      </trkpt>
      <trkpt lat="41.430767" lon="27.435887">
        <ele>95.675787</ele>
        <time>2026-05-12T07:59:45.065Z</time>
      </trkpt>
      <trkpt lat="41.430846" lon="27.436409">
        <ele>96.978416</ele>
        <time>2026-05-12T07:59:59.591Z</time>
      </trkpt>
      <trkpt lat="41.430874" lon="27.436539">
        <ele>97.309273</ele>
        <time>2026-05-12T08:00:03.268Z</time>
      </trkpt>
      <trkpt lat="41.431055" lon="27.437229">
        <ele>99.074668</ele>
        <time>2026-05-12T08:00:21.574Z</time>
      </trkpt>
      <trkpt lat="41.431309" lon="27.438203">
        <ele>101.532630</ele>
        <time>2026-05-12T08:00:45.917Z</time>
      </trkpt>
      <trkpt lat="41.431382" lon="27.438491">
        <ele>102.257248</ele>
        <time>2026-05-12T08:00:52.738Z</time>
      </trkpt>
      <trkpt lat="41.431683" lon="27.439240">
        <ele>104.232670</ele>
        <time>2026-05-12T08:01:11.553Z</time>
      </trkpt>
      <trkpt lat="41.432091" lon="27.439977">
        <ele>106.109233</ele>
        <time>2026-05-12T08:01:32.690Z</time>
      </trkpt>
      <trkpt lat="41.432378" lon="27.440759">
        <ele>107.892646</ele>
        <time>2026-05-12T08:01:52.019Z</time>
      </trkpt>
      <trkpt lat="41.432603" lon="27.442019">
        <ele>110.200631</ele>
        <time>2026-05-12T08:02:18.461Z</time>
      </trkpt>
      <trkpt lat="41.432748" lon="27.442827">
        <ele>111.558027</ele>
        <time>2026-05-12T08:02:35.190Z</time>
      </trkpt>
      <trkpt lat="41.434060" lon="27.450172">
        <ele>121.077149</ele>
        <time>2026-05-12T08:05:05.415Z</time>
      </trkpt>
      <trkpt lat="41.434466" lon="27.452800">
        <ele>112.478565</ele>
        <time>2026-05-12T08:05:28.679Z</time>
      </trkpt>
      <trkpt lat="41.435043" lon="27.456798">
        <ele>94.045602</ele>
        <time>2026-05-12T08:06:02.559Z</time>
      </trkpt>
      <trkpt lat="41.435131" lon="27.457159">
        <ele>92.575493</ele>
        <time>2026-05-12T08:06:06.185Z</time>
      </trkpt>
      <trkpt lat="41.435345" lon="27.457665">
        <ele>90.649063</ele>
        <time>2026-05-12T08:06:12.092Z</time>
      </trkpt>
      <trkpt lat="41.435850" lon="27.458534">
        <ele>89.015636</ele>
        <time>2026-05-12T08:06:23.741Z</time>
      </trkpt>
      <trkpt lat="41.436008" lon="27.458799">
        <ele>88.512631</ele>
        <time>2026-05-12T08:06:27.247Z</time>
      </trkpt>
      <trkpt lat="41.436233" lon="27.459377">
        <ele>87.545101</ele>
        <time>2026-05-12T08:06:33.854Z</time>
      </trkpt>
      <trkpt lat="41.436291" lon="27.459700">
        <ele>87.127821</ele>
        <time>2026-05-12T08:06:37.089Z</time>
      </trkpt>
      <trkpt lat="41.436317" lon="27.460174">
        <ele>86.651013</ele>
        <time>2026-05-12T08:06:41.717Z</time>
      </trkpt>
      <trkpt lat="41.436171" lon="27.460766">
        <ele>86.025781</ele>
        <time>2026-05-12T08:06:48.231Z</time>
      </trkpt>
      <trkpt lat="41.435938" lon="27.461449">
        <ele>85.272958</ele>
        <time>2026-05-12T08:06:56.770Z</time>
      </trkpt>
      <trkpt lat="41.435909" lon="27.461551">
        <ele>85.163515</ele>
        <time>2026-05-12T08:06:58.080Z</time>
      </trkpt>
      <trkpt lat="41.435888" lon="27.462003">
        <ele>84.940532</ele>
        <time>2026-05-12T08:07:03.705Z</time>
      </trkpt>
      <trkpt lat="41.435917" lon="27.462452">
        <ele>85.103533</ele>
        <time>2026-05-12T08:07:09.633Z</time>
      </trkpt>
      <trkpt lat="41.436222" lon="27.464997">
        <ele>86.609377</ele>
        <time>2026-05-12T08:07:49.144Z</time>
      </trkpt>
      <trkpt lat="41.436272" lon="27.465423">
        <ele>87.075181</ele>
        <time>2026-05-12T08:07:56.630Z</time>
      </trkpt>
      <trkpt lat="41.436369" lon="27.466150">
        <ele>87.872881</ele>
        <time>2026-05-12T08:08:10.372Z</time>
      </trkpt>
      <trkpt lat="41.436611" lon="27.467709">
        <ele>90.218454</ele>
        <time>2026-05-12T08:08:42.874Z</time>
      </trkpt>
      <trkpt lat="41.436735" lon="27.468151">
        <ele>90.982653</ele>
        <time>2026-05-12T08:08:52.656Z</time>
      </trkpt>
      <trkpt lat="41.436829" lon="27.468363">
        <ele>91.381490</ele>
        <time>2026-05-12T08:08:57.615Z</time>
      </trkpt>
      <trkpt lat="41.436967" lon="27.468570">
        <ele>91.830046</ele>
        <time>2026-05-12T08:09:03.206Z</time>
      </trkpt>
      <trkpt lat="41.437353" lon="27.468999">
        <ele>92.703344</ele>
        <time>2026-05-12T08:09:16.349Z</time>
      </trkpt>
      <trkpt lat="41.437461" lon="27.469175">
        <ele>92.958771</ele>
        <time>2026-05-12T08:09:20.658Z</time>
      </trkpt>
      <trkpt lat="41.437531" lon="27.469365">
        <ele>93.196524</ele>
        <time>2026-05-12T08:09:24.679Z</time>
      </trkpt>
      <trkpt lat="41.437629" lon="27.470003">
        <ele>93.927909</ele>
        <time>2026-05-12T08:09:36.666Z</time>
      </trkpt>
      <trkpt lat="41.437657" lon="27.470427">
        <ele>94.405922</ele>
        <time>2026-05-12T08:09:43.695Z</time>
      </trkpt>
      <trkpt lat="41.437698" lon="27.470729">
        <ele>94.750597</ele>
        <time>2026-05-12T08:09:48.608Z</time>
      </trkpt>
      <trkpt lat="41.437777" lon="27.470959">
        <ele>94.994209</ele>
        <time>2026-05-12T08:09:52.616Z</time>
      </trkpt>
      <trkpt lat="41.437880" lon="27.471145">
        <ele>95.163645</ele>
        <time>2026-05-12T08:09:56.112Z</time>
      </trkpt>
      <trkpt lat="41.438072" lon="27.471299">
        <ele>95.382616</ele>
        <time>2026-05-12T08:10:00.353Z</time>
      </trkpt>
      <trkpt lat="41.438461" lon="27.471550">
        <ele>95.804964</ele>
        <time>2026-05-12T08:10:09.004Z</time>
      </trkpt>
      <trkpt lat="41.438552" lon="27.471585">
        <ele>95.897530</ele>
        <time>2026-05-12T08:10:11.021Z</time>
      </trkpt>
      <trkpt lat="41.438858" lon="27.471817">
        <ele>96.241543</ele>
        <time>2026-05-12T08:10:18.509Z</time>
      </trkpt>
      <trkpt lat="41.438885" lon="27.471919">
        <ele>96.320802</ele>
        <time>2026-05-12T08:10:20.232Z</time>
      </trkpt>
      <trkpt lat="41.438964" lon="27.472223">
        <ele>96.556549</ele>
        <time>2026-05-12T08:10:25.515Z</time>
      </trkpt>
      <trkpt lat="41.439089" lon="27.473276">
        <ele>98.176999</ele>
        <time>2026-05-12T08:10:45.748Z</time>
      </trkpt>
      <trkpt lat="41.439143" lon="27.473586">
        <ele>98.706026</ele>
        <time>2026-05-12T08:10:52.396Z</time>
      </trkpt>
      <trkpt lat="41.439283" lon="27.474467">
        <ele>100.203010</ele>
        <time>2026-05-12T08:11:11.665Z</time>
      </trkpt>
      <trkpt lat="41.439381" lon="27.474899">
        <ele>101.092948</ele>
        <time>2026-05-12T08:11:21.369Z</time>
      </trkpt>
      <trkpt lat="41.439447" lon="27.475268">
        <ele>102.028424</ele>
        <time>2026-05-12T08:11:30.162Z</time>
      </trkpt>
      <trkpt lat="41.439684" lon="27.476604">
        <ele>105.413907</ele>
        <time>2026-05-12T08:12:03.072Z</time>
      </trkpt>
      <trkpt lat="41.440123" lon="27.478638">
        <ele>111.233953</ele>
        <time>2026-05-12T08:12:57.456Z</time>
      </trkpt>
      <trkpt lat="41.440160" lon="27.478904">
        <ele>111.999958</ele>
        <time>2026-05-12T08:13:04.478Z</time>
      </trkpt>
      <trkpt lat="41.440224" lon="27.479451">
        <ele>113.561301</ele>
        <time>2026-05-12T08:13:18.653Z</time>
      </trkpt>
      <trkpt lat="41.440254" lon="27.479993">
        <ele>115.050913</ele>
        <time>2026-05-12T08:13:32.483Z</time>
      </trkpt>
      <trkpt lat="41.440263" lon="27.480377">
        <ele>116.103932</ele>
        <time>2026-05-12T08:13:42.323Z</time>
      </trkpt>
      <trkpt lat="41.440238" lon="27.480781">
        <ele>117.215022</ele>
        <time>2026-05-12T08:13:52.739Z</time>
      </trkpt>
      <trkpt lat="41.440187" lon="27.481083">
        <ele>118.063517</ele>
        <time>2026-05-12T08:14:00.619Z</time>
      </trkpt>
      <trkpt lat="41.439634" lon="27.483068">
        <ele>122.455681</ele>
        <time>2026-05-12T08:14:52.057Z</time>
      </trkpt>
      <trkpt lat="41.439293" lon="27.484292">
        <ele>124.173379</ele>
        <time>2026-05-12T08:15:13.184Z</time>
      </trkpt>
      <trkpt lat="41.438663" lon="27.486398">
        <ele>124.491250</ele>
        <time>2026-05-12T08:15:40.407Z</time>
      </trkpt>
      <trkpt lat="41.438250" lon="27.487766">
        <ele>126.027242</ele>
        <time>2026-05-12T08:16:07.446Z</time>
      </trkpt>
      <trkpt lat="41.436561" lon="27.493275">
        <ele>134.274705</ele>
        <time>2026-05-12T08:18:03.219Z</time>
      </trkpt>
      <trkpt lat="41.436244" lon="27.494403">
        <ele>135.508359</ele>
        <time>2026-05-12T08:18:25.758Z</time>
      </trkpt>
      <trkpt lat="41.436127" lon="27.494893">
        <ele>136.034996</ele>
        <time>2026-05-12T08:18:34.459Z</time>
      </trkpt>
      <trkpt lat="41.435680" lon="27.499997">
        <ele>135.811434</ele>
        <time>2026-05-12T08:19:39.919Z</time>
      </trkpt>
      <trkpt lat="41.435534" lon="27.502149">
        <ele>132.650154</ele>
        <time>2026-05-12T08:20:01.968Z</time>
      </trkpt>
      <trkpt lat="41.435485" lon="27.503354">
        <ele>129.289505</ele>
        <time>2026-05-12T08:20:13.050Z</time>
      </trkpt>
      <trkpt lat="41.435485" lon="27.504277">
        <ele>126.551926</ele>
        <time>2026-05-12T08:20:21.296Z</time>
      </trkpt>
      <trkpt lat="41.435535" lon="27.506454">
        <ele>119.305377</ele>
        <time>2026-05-12T08:20:40.766Z</time>
      </trkpt>
      <trkpt lat="41.435608" lon="27.508735">
        <ele>111.398755</ele>
        <time>2026-05-12T08:21:00.822Z</time>
      </trkpt>
      <trkpt lat="41.435693" lon="27.511235">
        <ele>104.168507</ele>
        <time>2026-05-12T08:21:23.390Z</time>
      </trkpt>
      <trkpt lat="41.435753" lon="27.514048">
        <ele>100.482032</ele>
        <time>2026-05-12T08:21:52.149Z</time>
      </trkpt>
      <trkpt lat="41.435756" lon="27.514179">
        <ele>100.362320</ele>
        <time>2026-05-12T08:21:54.326Z</time>
      </trkpt>
      <trkpt lat="41.435791" lon="27.514804">
        <ele>101.622328</ele>
        <time>2026-05-12T08:22:06.866Z</time>
      </trkpt>
      <trkpt lat="41.436091" lon="27.517328">
        <ele>107.907531</ele>
        <time>2026-05-12T08:23:18.239Z</time>
      </trkpt>
      <trkpt lat="41.438105" lon="27.530526">
        <ele>135.930422</ele>
        <time>2026-05-12T08:28:14.417Z</time>
      </trkpt>
      <trkpt lat="41.438283" lon="27.531563">
        <ele>136.886592</ele>
        <time>2026-05-12T08:28:33.795Z</time>
      </trkpt>
      <trkpt lat="41.438382" lon="27.531989">
        <ele>137.157126</ele>
        <time>2026-05-12T08:28:40.885Z</time>
      </trkpt>
      <trkpt lat="41.439513" lon="27.536644">
        <ele>137.881786</ele>
        <time>2026-05-12T08:29:44.505Z</time>
      </trkpt>
      <trkpt lat="41.439983" lon="27.538579">
        <ele>136.921207</ele>
        <time>2026-05-12T08:30:09.732Z</time>
      </trkpt>
      <trkpt lat="41.441025" lon="27.542840">
        <ele>132.917388</ele>
        <time>2026-05-12T08:30:55.460Z</time>
      </trkpt>
      <trkpt lat="41.441053" lon="27.542955">
        <ele>133.036059</ele>
        <time>2026-05-12T08:30:57.494Z</time>
      </trkpt>
      <trkpt lat="41.441246" lon="27.543732">
        <ele>133.839418</ele>
        <time>2026-05-12T08:31:13.677Z</time>
      </trkpt>
      <trkpt lat="41.441794" lon="27.545961">
        <ele>138.580928</ele>
        <time>2026-05-12T08:32:12.102Z</time>
      </trkpt>
      <trkpt lat="41.441962" lon="27.546614">
        <ele>140.336162</ele>
        <time>2026-05-12T08:32:28.815Z</time>
      </trkpt>
      <trkpt lat="41.442145" lon="27.547299">
        <ele>141.720481</ele>
        <time>2026-05-12T08:32:45.591Z</time>
      </trkpt>
      <trkpt lat="41.442306" lon="27.547759">
        <ele>142.605194</ele>
        <time>2026-05-12T08:32:56.418Z</time>
      </trkpt>
      <trkpt lat="41.442505" lon="27.548098">
        <ele>143.355551</ele>
        <time>2026-05-12T08:33:05.412Z</time>
      </trkpt>
      <trkpt lat="41.442760" lon="27.548288">
        <ele>144.034566</ele>
        <time>2026-05-12T08:33:13.163Z</time>
      </trkpt>
      <trkpt lat="41.443255" lon="27.548576">
        <ele>145.050547</ele>
        <time>2026-05-12T08:33:25.994Z</time>
      </trkpt>
      <trkpt lat="41.443401" lon="27.548621">
        <ele>145.190553</ele>
        <time>2026-05-12T08:33:29.208Z</time>
      </trkpt>
      <trkpt lat="41.443503" lon="27.548721">
        <ele>145.308824</ele>
        <time>2026-05-12T08:33:31.883Z</time>
      </trkpt>
      <trkpt lat="41.443843" lon="27.548860">
        <ele>145.641081</ele>
        <time>2026-05-12T08:33:39.266Z</time>
      </trkpt>
      <trkpt lat="41.443901" lon="27.548875">
        <ele>145.696281</ele>
        <time>2026-05-12T08:33:40.495Z</time>
      </trkpt>
      <trkpt lat="41.444051" lon="27.548913">
        <ele>145.838936</ele>
        <time>2026-05-12T08:33:43.640Z</time>
      </trkpt>
      <trkpt lat="41.444568" lon="27.549067">
        <ele>146.333883</ele>
        <time>2026-05-12T08:33:54.405Z</time>
      </trkpt>
      <trkpt lat="41.444672" lon="27.549126">
        <ele>146.439475</ele>
        <time>2026-05-12T08:33:56.973Z</time>
      </trkpt>
      <trkpt lat="41.444987" lon="27.549135">
        <ele>146.758244</ele>
        <time>2026-05-12T08:34:04.159Z</time>
      </trkpt>
      <trkpt lat="41.445301" lon="27.549206">
        <ele>147.100138</ele>
        <time>2026-05-12T08:34:11.512Z</time>
      </trkpt>
      <trkpt lat="41.445463" lon="27.549273">
        <ele>147.282215</ele>
        <time>2026-05-12T08:34:15.603Z</time>
      </trkpt>
      <trkpt lat="41.446312" lon="27.549496">
        <ele>148.211136</ele>
        <time>2026-05-12T08:34:37.286Z</time>
      </trkpt>
      <trkpt lat="41.446425" lon="27.549595">
        <ele>148.356264</ele>
        <time>2026-05-12T08:34:40.490Z</time>
      </trkpt>
      <trkpt lat="41.446618" lon="27.549744">
        <ele>148.594919</ele>
        <time>2026-05-12T08:34:45.862Z</time>
      </trkpt>
      <trkpt lat="41.446745" lon="27.549914">
        <ele>148.786571</ele>
        <time>2026-05-12T08:34:50.267Z</time>
      </trkpt>
      <trkpt lat="41.446717" lon="27.550364">
        <ele>149.147133</ele>
        <time>2026-05-12T08:34:58.692Z</time>
      </trkpt>
      <trkpt lat="41.446716" lon="27.550371">
        <ele>149.152823</ele>
        <time>2026-05-12T08:34:58.820Z</time>
      </trkpt>
      <trkpt lat="41.446483" lon="27.551745">
        <ele>150.277694</ele>
        <time>2026-05-12T08:35:22.553Z</time>
      </trkpt>
      <trkpt lat="41.446461" lon="27.552022">
        <ele>150.323423</ele>
        <time>2026-05-12T08:35:26.244Z</time>
      </trkpt>
      <trkpt lat="41.446487" lon="27.552253">
        <ele>150.112867</ele>
        <time>2026-05-12T08:35:29.126Z</time>
      </trkpt>
      <trkpt lat="41.446589" lon="27.552649">
        <ele>149.735429</ele>
        <time>2026-05-12T08:35:33.932Z</time>
      </trkpt>
      <trkpt lat="41.446932" lon="27.553553">
        <ele>148.822126</ele>
        <time>2026-05-12T08:35:44.554Z</time>
      </trkpt>
      <trkpt lat="41.447149" lon="27.554135">
        <ele>148.227566</ele>
        <time>2026-05-12T08:35:51.154Z</time>
      </trkpt>
      <trkpt lat="41.447319" lon="27.554716">
        <ele>147.395299</ele>
        <time>2026-05-12T08:35:57.499Z</time>
      </trkpt>
      <trkpt lat="41.447358" lon="27.554870">
        <ele>147.178388</ele>
        <time>2026-05-12T08:35:59.175Z</time>
      </trkpt>
      <trkpt lat="41.447517" lon="27.555642">
        <ele>146.110047</ele>
        <time>2026-05-12T08:36:07.612Z</time>
      </trkpt>
      <trkpt lat="41.447582" lon="27.556094">
        <ele>145.495897</ele>
        <time>2026-05-12T08:36:12.497Z</time>
      </trkpt>
      <trkpt lat="41.447608" lon="27.556507">
        <ele>144.906714</ele>
        <time>2026-05-12T08:36:16.819Z</time>
      </trkpt>
      <trkpt lat="41.447589" lon="27.556834">
        <ele>144.324378</ele>
        <time>2026-05-12T08:36:20.213Z</time>
      </trkpt>
      <trkpt lat="41.447232" lon="27.560038">
        <ele>137.550661</ele>
        <time>2026-05-12T08:36:51.934Z</time>
      </trkpt>
      <trkpt lat="41.447151" lon="27.560558">
        <ele>136.173073</ele>
        <time>2026-05-12T08:36:56.785Z</time>
      </trkpt>
      <trkpt lat="41.446698" lon="27.561794">
        <ele>133.461389</ele>
        <time>2026-05-12T08:37:08.809Z</time>
      </trkpt>
      <trkpt lat="41.446347" lon="27.562761">
        <ele>131.891058</ele>
        <time>2026-05-12T08:37:19.310Z</time>
      </trkpt>
      <trkpt lat="41.445400" lon="27.565271">
        <ele>134.758871</ele>
        <time>2026-05-12T08:38:20.647Z</time>
      </trkpt>
      <trkpt lat="41.445349" lon="27.565741">
        <ele>135.039483</ele>
        <time>2026-05-12T08:38:28.977Z</time>
      </trkpt>
      <trkpt lat="41.445353" lon="27.566298">
        <ele>135.075186</ele>
        <time>2026-05-12T08:38:36.928Z</time>
      </trkpt>
      <trkpt lat="41.445479" lon="27.567575">
        <ele>135.157742</ele>
        <time>2026-05-12T08:38:51.631Z</time>
      </trkpt>
      <trkpt lat="41.445495" lon="27.568197">
        <ele>135.257778</ele>
        <time>2026-05-12T08:38:59.115Z</time>
      </trkpt>
      <trkpt lat="41.445469" lon="27.569136">
        <ele>135.464789</ele>
        <time>2026-05-12T08:39:11.480Z</time>
      </trkpt>
      <trkpt lat="41.445416" lon="27.569876">
        <ele>135.628559</ele>
        <time>2026-05-12T08:39:22.845Z</time>
      </trkpt>
      <trkpt lat="41.445147" lon="27.571489">
        <ele>135.460264</ele>
        <time>2026-05-12T08:39:49.657Z</time>
      </trkpt>
      <trkpt lat="41.445063" lon="27.571994">
        <ele>135.365762</ele>
        <time>2026-05-12T08:39:56.074Z</time>
      </trkpt>
      <trkpt lat="41.445052" lon="27.572070">
        <ele>135.351621</ele>
        <time>2026-05-12T08:39:56.943Z</time>
      </trkpt>
      <trkpt lat="41.445016" lon="27.572314">
        <ele>135.306189</ele>
        <time>2026-05-12T08:39:59.637Z</time>
      </trkpt>
      <trkpt lat="41.444890" lon="27.573359">
        <ele>132.063777</ele>
        <time>2026-05-12T08:40:09.529Z</time>
      </trkpt>
      <trkpt lat="41.444766" lon="27.574189">
        <ele>128.774669</ele>
        <time>2026-05-12T08:40:16.691Z</time>
      </trkpt>
      <trkpt lat="41.444699" lon="27.574509">
        <ele>127.483435</ele>
        <time>2026-05-12T08:40:19.436Z</time>
      </trkpt>
      <trkpt lat="41.444715" lon="27.574625">
        <ele>127.025049</ele>
        <time>2026-05-12T08:40:20.403Z</time>
      </trkpt>
      <trkpt lat="41.444853" lon="27.575952">
        <ele>121.971055</ele>
        <time>2026-05-12T08:40:31.581Z</time>
      </trkpt>
      <trkpt lat="41.444872" lon="27.576382">
        <ele>120.359032</ele>
        <time>2026-05-12T08:40:35.360Z</time>
      </trkpt>
      <trkpt lat="41.444835" lon="27.576956">
        <ele>118.202968</ele>
        <time>2026-05-12T08:40:40.623Z</time>
      </trkpt>
      <trkpt lat="41.444746" lon="27.577404">
        <ele>116.777486</ele>
        <time>2026-05-12T08:40:45.142Z</time>
      </trkpt>
      <trkpt lat="41.444688" lon="27.577655">
        <ele>116.414850</ele>
        <time>2026-05-12T08:40:47.773Z</time>
      </trkpt>
      <trkpt lat="41.444565" lon="27.578073">
        <ele>115.794863</ele>
        <time>2026-05-12T08:40:52.258Z</time>
      </trkpt>
      <trkpt lat="41.444358" lon="27.578518">
        <ele>115.071786</ele>
        <time>2026-05-12T08:40:57.614Z</time>
      </trkpt>
      <trkpt lat="41.444030" lon="27.579195">
        <ele>113.958837</ele>
        <time>2026-05-12T08:41:06.159Z</time>
      </trkpt>
      <trkpt lat="41.443358" lon="27.580611">
        <ele>113.530175</ele>
        <time>2026-05-12T08:41:25.999Z</time>
      </trkpt>
      <trkpt lat="41.443232" lon="27.580916">
        <ele>113.502511</ele>
        <time>2026-05-12T08:41:31.060Z</time>
      </trkpt>
      <trkpt lat="41.442981" lon="27.581692">
        <ele>113.742999</ele>
        <time>2026-05-12T08:41:43.316Z</time>
      </trkpt>
      <trkpt lat="41.442754" lon="27.582236">
        <ele>114.482468</ele>
        <time>2026-05-12T08:41:54.376Z</time>
      </trkpt>
      <trkpt lat="41.442652" lon="27.582498">
        <ele>114.833110</ele>
        <time>2026-05-12T08:41:59.744Z</time>
      </trkpt>
      <trkpt lat="41.442449" lon="27.582968">
        <ele>115.477362</ele>
        <time>2026-05-12T08:42:09.337Z</time>
      </trkpt>
      <trkpt lat="41.442346" lon="27.583238">
        <ele>115.837180</ele>
        <time>2026-05-12T08:42:16.402Z</time>
      </trkpt>
      <trkpt lat="41.442270" lon="27.583407">
        <ele>116.071252</ele>
        <time>2026-05-12T08:42:21.219Z</time>
      </trkpt>
      <trkpt lat="41.442215" lon="27.583523">
        <ele>116.234272</ele>
        <time>2026-05-12T08:42:24.672Z</time>
      </trkpt>
      <trkpt lat="41.441826" lon="27.584083">
        <ele>117.750100</ele>
        <time>2026-05-12T08:42:45.639Z</time>
      </trkpt>
      <trkpt lat="41.441536" lon="27.584560">
        <ele>119.010580</ele>
        <time>2026-05-12T08:43:02.815Z</time>
      </trkpt>
      <trkpt lat="41.441330" lon="27.584950">
        <ele>119.989755</ele>
        <time>2026-05-12T08:43:15.823Z</time>
      </trkpt>
      <trkpt lat="41.441203" lon="27.585132">
        <ele>120.500077</ele>
        <time>2026-05-12T08:43:22.626Z</time>
      </trkpt>
      <trkpt lat="41.440598" lon="27.585742">
        <ele>121.886704</ele>
        <time>2026-05-12T08:43:48.489Z</time>
      </trkpt>
      <trkpt lat="41.440763" lon="27.585910">
        <ele>122.164136</ele>
        <time>2026-05-12T08:43:53.533Z</time>
      </trkpt>
      <trkpt lat="41.441287" lon="27.586080">
        <ele>122.884911</ele>
        <time>2026-05-12T08:44:05.229Z</time>
      </trkpt>
      <trkpt lat="41.441699" lon="27.586225">
        <ele>123.454417</ele>
        <time>2026-05-12T08:44:13.441Z</time>
      </trkpt>
      <trkpt lat="41.441829" lon="27.586261">
        <ele>123.631875</ele>
        <time>2026-05-12T08:44:15.854Z</time>
      </trkpt>
      <trkpt lat="41.442236" lon="27.586414">
        <ele>123.910580</ele>
        <time>2026-05-12T08:44:23.787Z</time>
      </trkpt>
      <trkpt lat="41.442578" lon="27.586692">
        <ele>124.174066</ele>
        <time>2026-05-12T08:44:31.411Z</time>
      </trkpt>
      <trkpt lat="41.442796" lon="27.586878">
        <ele>124.344316</ele>
        <time>2026-05-12T08:44:36.634Z</time>
      </trkpt>
      <trkpt lat="41.443079" lon="27.587419">
        <ele>124.669667</ele>
        <time>2026-05-12T08:44:48.722Z</time>
      </trkpt>
      <trkpt lat="41.443187" lon="27.587682">
        <ele>124.816939</ele>
        <time>2026-05-12T08:44:54.180Z</time>
      </trkpt>
      <trkpt lat="41.443310" lon="27.588182">
        <ele>124.956550</ele>
        <time>2026-05-12T08:45:03.328Z</time>
      </trkpt>
      <trkpt lat="41.443393" lon="27.588860">
        <ele>125.138806</ele>
        <time>2026-05-12T08:45:14.084Z</time>
      </trkpt>
      <trkpt lat="41.443405" lon="27.589119">
        <ele>125.207649</ele>
        <time>2026-05-12T08:45:18.096Z</time>
      </trkpt>
      <trkpt lat="41.443378" lon="27.590104">
        <ele>125.507038</ele>
        <time>2026-05-12T08:45:32.940Z</time>
      </trkpt>
      <trkpt lat="41.443301" lon="27.591092">
        <ele>126.381094</ele>
        <time>2026-05-12T08:45:49.280Z</time>
      </trkpt>
      <trkpt lat="41.443300" lon="27.591469">
        <ele>126.712829</ele>
        <time>2026-05-12T08:45:56.034Z</time>
      </trkpt>
      <trkpt lat="41.443332" lon="27.591700">
        <ele>126.919534</ele>
        <time>2026-05-12T08:46:00.562Z</time>
      </trkpt>
      <trkpt lat="41.443516" lon="27.592251">
        <ele>127.450308</ele>
        <time>2026-05-12T08:46:12.386Z</time>
      </trkpt>
      <trkpt lat="41.444058" lon="27.593541">
        <ele>129.385865</ele>
        <time>2026-05-12T08:46:40.948Z</time>
      </trkpt>
      <trkpt lat="41.444295" lon="27.594172">
        <ele>130.338638</ele>
        <time>2026-05-12T08:46:53.951Z</time>
      </trkpt>
      <trkpt lat="41.444495" lon="27.594836">
        <ele>131.184840</ele>
        <time>2026-05-12T08:47:07.096Z</time>
      </trkpt>
      <trkpt lat="41.444730" lon="27.595811">
        <ele>132.236974</ele>
        <time>2026-05-12T08:47:25.406Z</time>
      </trkpt>
      <trkpt lat="41.444810" lon="27.596226">
        <ele>132.677180</ele>
        <time>2026-05-12T08:47:32.792Z</time>
      </trkpt>
      <trkpt lat="41.444893" lon="27.597039">
        <ele>133.508441</ele>
        <time>2026-05-12T08:47:46.132Z</time>
      </trkpt>
      <trkpt lat="41.444915" lon="27.597980">
        <ele>134.430849</ele>
        <time>2026-05-12T08:48:01.178Z</time>
      </trkpt>
      <trkpt lat="41.444934" lon="27.598625">
        <ele>135.063285</ele>
        <time>2026-05-12T08:48:12.370Z</time>
      </trkpt>
      <trkpt lat="41.444980" lon="27.599177">
        <ele>135.607447</ele>
        <time>2026-05-12T08:48:22.626Z</time>
      </trkpt>
      <trkpt lat="41.445541" lon="27.604145">
        <ele>143.111628</ele>
        <time>2026-05-12T08:50:02.070Z</time>
      </trkpt>
      <trkpt lat="41.445564" lon="27.604366">
        <ele>143.373230</ele>
        <time>2026-05-12T08:50:06.207Z</time>
      </trkpt>
      <trkpt lat="41.446001" lon="27.608568">
        <ele>148.080134</ele>
        <time>2026-05-12T08:51:21.632Z</time>
      </trkpt>
      <trkpt lat="41.446334" lon="27.611160">
        <ele>149.882118</ele>
        <time>2026-05-12T08:52:04.225Z</time>
      </trkpt>
      <trkpt lat="41.446447" lon="27.611881">
        <ele>149.678619</ele>
        <time>2026-05-12T08:52:13.600Z</time>
      </trkpt>
      <trkpt lat="41.447012" lon="27.614555">
        <ele>148.944937</ele>
        <time>2026-05-12T08:52:45.399Z</time>
      </trkpt>
      <trkpt lat="41.447502" lon="27.616723">
        <ele>148.055717</ele>
        <time>2026-05-12T08:53:15.764Z</time>
      </trkpt>
      <trkpt lat="41.447894" lon="27.618118">
        <ele>147.107722</ele>
        <time>2026-05-12T08:53:31.703Z</time>
      </trkpt>
      <trkpt lat="41.448026" lon="27.618583">
        <ele>146.471511</ele>
        <time>2026-05-12T08:53:36.675Z</time>
      </trkpt>
      <trkpt lat="41.448662" lon="27.620960">
        <ele>144.354217</ele>
        <time>2026-05-12T08:54:02.976Z</time>
      </trkpt>
      <trkpt lat="41.450686" lon="27.629191">
        <ele>145.044440</ele>
        <time>2026-05-12T08:56:05.301Z</time>
      </trkpt>
      <trkpt lat="41.451035" lon="27.630700">
        <ele>142.493599</ele>
        <time>2026-05-12T08:56:21.253Z</time>
      </trkpt>
      <trkpt lat="41.451353" lon="27.632303">
        <ele>139.389086</ele>
        <time>2026-05-12T08:56:36.767Z</time>
      </trkpt>
      <trkpt lat="41.451913" lon="27.634819">
        <ele>134.745867</ele>
        <time>2026-05-12T08:57:02.735Z</time>
      </trkpt>
      <trkpt lat="41.452063" lon="27.635339">
        <ele>134.012553</ele>
        <time>2026-05-12T08:57:08.468Z</time>
      </trkpt>
      <trkpt lat="41.452234" lon="27.635771">
        <ele>133.369575</ele>
        <time>2026-05-12T08:57:13.603Z</time>
      </trkpt>
      <trkpt lat="41.453789" lon="27.639189">
        <ele>131.448943</ele>
        <time>2026-05-12T08:58:00.344Z</time>
      </trkpt>
      <trkpt lat="41.453825" lon="27.639266">
        <ele>131.435092</ele>
        <time>2026-05-12T08:58:01.414Z</time>
      </trkpt>
      <trkpt lat="41.454696" lon="27.641109">
        <ele>132.247823</ele>
        <time>2026-05-12T08:58:31.106Z</time>
      </trkpt>
      <trkpt lat="41.454898" lon="27.641581">
        <ele>132.762154</ele>
        <time>2026-05-12T08:58:40.695Z</time>
      </trkpt>
      <trkpt lat="41.454958" lon="27.641730">
        <ele>132.922211</ele>
        <time>2026-05-12T08:58:43.929Z</time>
      </trkpt>
      <trkpt lat="41.455144" lon="27.642280">
        <ele>133.493192</ele>
        <time>2026-05-12T08:58:56.683Z</time>
      </trkpt>
      <trkpt lat="41.455216" lon="27.642790">
        <ele>134.369025</ele>
        <time>2026-05-12T08:59:07.880Z</time>
      </trkpt>
      <trkpt lat="41.455253" lon="27.643102">
        <ele>134.922528</ele>
        <time>2026-05-12T08:59:14.771Z</time>
      </trkpt>
      <trkpt lat="41.455348" lon="27.643433">
        <ele>135.543596</ele>
        <time>2026-05-12T08:59:22.220Z</time>
      </trkpt>
      <trkpt lat="41.455371" lon="27.643615">
        <ele>135.867007</ele>
        <time>2026-05-12T08:59:26.003Z</time>
      </trkpt>
      <trkpt lat="41.455313" lon="27.644010">
        <ele>136.572303</ele>
        <time>2026-05-12T08:59:34.192Z</time>
      </trkpt>
      <trkpt lat="41.455184" lon="27.644454">
        <ele>137.406715</ele>
        <time>2026-05-12T08:59:44.058Z</time>
      </trkpt>
      <trkpt lat="41.455057" lon="27.644687">
        <ele>137.901314</ele>
        <time>2026-05-12T08:59:49.884Z</time>
      </trkpt>
      <trkpt lat="41.454426" lon="27.645440">
        <ele>139.764052</ele>
        <time>2026-05-12T09:00:11.798Z</time>
      </trkpt>
      <trkpt lat="41.454103" lon="27.646326">
        <ele>141.388874</ele>
        <time>2026-05-12T09:00:32.003Z</time>
      </trkpt>
      <trkpt lat="41.453634" lon="27.647231">
        <ele>143.439288</ele>
        <time>2026-05-12T09:00:55.610Z</time>
      </trkpt>
      <trkpt lat="41.453494" lon="27.647698">
        <ele>144.398527</ele>
        <time>2026-05-12T09:01:06.495Z</time>
      </trkpt>
      <trkpt lat="41.453395" lon="27.648173">
        <ele>145.338796</ele>
        <time>2026-05-12T09:01:17.234Z</time>
      </trkpt>
      <trkpt lat="41.453352" lon="27.648608">
        <ele>146.175590</ele>
        <time>2026-05-12T09:01:26.766Z</time>
      </trkpt>
      <trkpt lat="41.453361" lon="27.648747">
        <ele>146.421311</ele>
        <time>2026-05-12T09:01:29.751Z</time>
      </trkpt>
      <trkpt lat="41.453492" lon="27.650924">
        <ele>150.086110</ele>
        <time>2026-05-12T09:02:14.943Z</time>
      </trkpt>
      <trkpt lat="41.453544" lon="27.652596">
        <ele>151.489373</ele>
        <time>2026-05-12T09:02:44.773Z</time>
      </trkpt>
      <trkpt lat="41.453533" lon="27.653188">
        <ele>151.945141</ele>
        <time>2026-05-12T09:02:53.315Z</time>
      </trkpt>
      <trkpt lat="41.453338" lon="27.653824">
        <ele>151.678664</ele>
        <time>2026-05-12T09:03:01.887Z</time>
      </trkpt>
      <trkpt lat="41.452808" lon="27.654908">
        <ele>150.258496</ele>
        <time>2026-05-12T09:03:15.775Z</time>
      </trkpt>
      <trkpt lat="41.452438" lon="27.655732">
        <ele>148.850385</ele>
        <time>2026-05-12T09:03:25.179Z</time>
      </trkpt>
      <trkpt lat="41.451284" lon="27.657703">
        <ele>142.984903</ele>
        <time>2026-05-12T09:03:48.647Z</time>
      </trkpt>
      <trkpt lat="41.451096" lon="27.658312">
        <ele>141.484367</ele>
        <time>2026-05-12T09:03:54.861Z</time>
      </trkpt>
      <trkpt lat="41.450981" lon="27.658885">
        <ele>140.132929</ele>
        <time>2026-05-12T09:04:00.505Z</time>
      </trkpt>
      <trkpt lat="41.450820" lon="27.661008">
        <ele>135.562199</ele>
        <time>2026-05-12T09:04:21.059Z</time>
      </trkpt>
      <trkpt lat="41.450679" lon="27.661841">
        <ele>133.798055</ele>
        <time>2026-05-12T09:04:29.303Z</time>
      </trkpt>
      <trkpt lat="41.450491" lon="27.662567">
        <ele>132.601372</ele>
        <time>2026-05-12T09:04:36.798Z</time>
      </trkpt>
      <trkpt lat="41.449793" lon="27.664287">
        <ele>130.206282</ele>
        <time>2026-05-12T09:04:56.956Z</time>
      </trkpt>
      <trkpt lat="41.449577" lon="27.665077">
        <ele>131.049734</ele>
        <time>2026-05-12T09:05:08.487Z</time>
      </trkpt>
      <trkpt lat="41.449554" lon="27.665185">
        <ele>131.162346</ele>
        <time>2026-05-12T09:05:10.372Z</time>
      </trkpt>
      <trkpt lat="41.449169" lon="27.667476">
        <ele>134.488061</ele>
        <time>2026-05-12T09:06:02.683Z</time>
      </trkpt>
      <trkpt lat="41.448470" lon="27.672008">
        <ele>141.911767</ele>
        <time>2026-05-12T09:07:39.319Z</time>
      </trkpt>
      <trkpt lat="41.448304" lon="27.672977">
        <ele>142.580944</ele>
        <time>2026-05-12T09:07:54.587Z</time>
      </trkpt>
      <trkpt lat="41.448269" lon="27.673182">
        <ele>142.722490</ele>
        <time>2026-05-12T09:07:57.191Z</time>
      </trkpt>
      <trkpt lat="41.447880" lon="27.674418">
        <ele>141.736201</ele>
        <time>2026-05-12T09:08:11.630Z</time>
      </trkpt>
      <trkpt lat="41.447665" lon="27.675242">
        <ele>140.709712</ele>
        <time>2026-05-12T09:08:20.423Z</time>
      </trkpt>
      <trkpt lat="41.447545" lon="27.676412">
        <ele>139.428427</ele>
        <time>2026-05-12T09:08:32.703Z</time>
      </trkpt>
      <trkpt lat="41.447407" lon="27.678148">
        <ele>137.646093</ele>
        <time>2026-05-12T09:08:51.865Z</time>
      </trkpt>
      <trkpt lat="41.447304" lon="27.678867">
        <ele>136.625704</ele>
        <time>2026-05-12T09:08:59.807Z</time>
      </trkpt>
      <trkpt lat="41.447161" lon="27.679529">
        <ele>135.665354</ele>
        <time>2026-05-12T09:09:06.991Z</time>
      </trkpt>
      <trkpt lat="41.446904" lon="27.680448">
        <ele>134.294091</ele>
        <time>2026-05-12T09:09:16.743Z</time>
      </trkpt>
      <trkpt lat="41.446686" lon="27.681068">
        <ele>133.222936</ele>
        <time>2026-05-12T09:09:23.310Z</time>
      </trkpt>
      <trkpt lat="41.446062" lon="27.682547">
        <ele>130.580157</ele>
        <time>2026-05-12T09:09:40.344Z</time>
      </trkpt>
      <trkpt lat="41.445711" lon="27.683474">
        <ele>131.093958</ele>
        <time>2026-05-12T09:09:53.452Z</time>
      </trkpt>
      <trkpt lat="41.445414" lon="27.684434">
        <ele>131.607761</ele>
        <time>2026-05-12T09:10:11.985Z</time>
      </trkpt>
      <trkpt lat="41.444683" lon="27.687332">
        <ele>135.901593</ele>
        <time>2026-05-12T09:11:12.658Z</time>
      </trkpt>
      <trkpt lat="41.444542" lon="27.687747">
        <ele>136.535848</ele>
        <time>2026-05-12T09:11:21.254Z</time>
      </trkpt>
      <trkpt lat="41.444331" lon="27.688268">
        <ele>137.360167</ele>
        <time>2026-05-12T09:11:32.483Z</time>
      </trkpt>
      <trkpt lat="41.444069" lon="27.688790">
        <ele>138.234648</ele>
        <time>2026-05-12T09:11:44.375Z</time>
      </trkpt>
      <trkpt lat="41.443699" lon="27.689350">
        <ele>139.139578</ele>
        <time>2026-05-12T09:11:58.638Z</time>
      </trkpt>
      <trkpt lat="41.443401" lon="27.689800">
        <ele>139.754402</ele>
        <time>2026-05-12T09:12:09.905Z</time>
      </trkpt>
      <trkpt lat="41.443046" lon="27.690272">
        <ele>140.439038</ele>
        <time>2026-05-12T09:12:21.823Z</time>
      </trkpt>
      <trkpt lat="41.442395" lon="27.691020">
        <ele>141.154311</ele>
        <time>2026-05-12T09:12:40.177Z</time>
      </trkpt>
      <trkpt lat="41.441697" lon="27.691834">
        <ele>140.930390</ele>
        <time>2026-05-12T09:12:55.862Z</time>
      </trkpt>
      <trkpt lat="41.440753" lon="27.692865">
        <ele>139.827898</ele>
        <time>2026-05-12T09:13:13.475Z</time>
      </trkpt>
      <trkpt lat="41.440155" lon="27.693424">
        <ele>138.720581</ele>
        <time>2026-05-12T09:13:23.651Z</time>
      </trkpt>
      <trkpt lat="41.440153" lon="27.693426">
        <ele>138.716790</ele>
        <time>2026-05-12T09:13:23.688Z</time>
      </trkpt>
      <trkpt lat="41.439577" lon="27.693920">
        <ele>137.477945</ele>
        <time>2026-05-12T09:13:33.287Z</time>
      </trkpt>
      <trkpt lat="41.439138" lon="27.694234">
        <ele>136.327133</ele>
        <time>2026-05-12T09:13:40.140Z</time>
      </trkpt>
      <trkpt lat="41.438881" lon="27.694363">
        <ele>135.692748</ele>
        <time>2026-05-12T09:13:43.850Z</time>
      </trkpt>
      <trkpt lat="41.438396" lon="27.694485">
        <ele>134.552514</ele>
        <time>2026-05-12T09:13:50.309Z</time>
      </trkpt>
      <trkpt lat="41.438167" lon="27.694613">
        <ele>133.978891</ele>
        <time>2026-05-12T09:13:53.458Z</time>
      </trkpt>
      <trkpt lat="41.438037" lon="27.694725">
        <ele>133.525231</ele>
        <time>2026-05-12T09:13:55.391Z</time>
      </trkpt>
      <trkpt lat="41.437873" lon="27.694875">
        <ele>132.910617</ele>
        <time>2026-05-12T09:13:57.850Z</time>
      </trkpt>
      <trkpt lat="41.436779" lon="27.696207">
        <ele>128.343855</ele>
        <time>2026-05-12T09:14:16.302Z</time>
      </trkpt>
      <trkpt lat="41.436461" lon="27.696529">
        <ele>128.109944</ele>
        <time>2026-05-12T09:14:21.754Z</time>
      </trkpt>
      <trkpt lat="41.437492" lon="27.697462">
        <ele>127.380011</ele>
        <time>2026-05-12T09:14:42.474Z</time>
      </trkpt>
      <trkpt lat="41.438044" lon="27.697936">
        <ele>128.053323</ele>
        <time>2026-05-12T09:14:57.047Z</time>
      </trkpt>
      <trkpt lat="41.438541" lon="27.698350">
        <ele>128.931422</ele>
        <time>2026-05-12T09:15:12.450Z</time>
      </trkpt>
      <trkpt lat="41.439197" lon="27.698995">
        <ele>130.026943</ele>
        <time>2026-05-12T09:15:33.176Z</time>
      </trkpt>
      <trkpt lat="41.439278" lon="27.699237">
        <ele>130.097089</ele>
        <time>2026-05-12T09:15:37.828Z</time>
      </trkpt>
      <trkpt lat="41.439292" lon="27.699425">
        <ele>130.147092</ele>
        <time>2026-05-12T09:15:41.083Z</time>
      </trkpt>
      <trkpt lat="41.439278" lon="27.699614">
        <ele>130.197359</ele>
        <time>2026-05-12T09:15:44.188Z</time>
      </trkpt>
      <trkpt lat="41.439238" lon="27.699781">
        <ele>130.243761</ele>
        <time>2026-05-12T09:15:46.846Z</time>
      </trkpt>
      <trkpt lat="41.438768" lon="27.700882">
        <ele>130.579103</ele>
        <time>2026-05-12T09:16:02.040Z</time>
      </trkpt>
      <trkpt lat="41.438767" lon="27.700884">
        <ele>130.579740</ele>
        <time>2026-05-12T09:16:02.067Z</time>
      </trkpt>
      <trkpt lat="41.438458" lon="27.701437">
        <ele>130.902117</ele>
        <time>2026-05-12T09:16:10.171Z</time>
      </trkpt>
      <trkpt lat="41.436943" lon="27.703578">
        <ele>133.697521</ele>
        <time>2026-05-12T09:16:59.123Z</time>
      </trkpt>
      <trkpt lat="41.436628" lon="27.704078">
        <ele>134.796376</ele>
        <time>2026-05-12T09:17:14.670Z</time>
      </trkpt>
      <trkpt lat="41.435927" lon="27.705010">
        <ele>136.652839</ele>
        <time>2026-05-12T09:17:45.648Z</time>
      </trkpt>
      <trkpt lat="41.435746" lon="27.705266">
        <ele>137.045703</ele>
        <time>2026-05-12T09:17:52.642Z</time>
      </trkpt>
      <trkpt lat="41.435561" lon="27.705594">
        <ele>137.503960</ele>
        <time>2026-05-12T09:17:59.874Z</time>
      </trkpt>
      <trkpt lat="41.435467" lon="27.705946">
        <ele>137.921138</ele>
        <time>2026-05-12T09:18:05.570Z</time>
      </trkpt>
      <trkpt lat="41.435410" lon="27.706308">
        <ele>138.334112</ele>
        <time>2026-05-12T09:18:10.417Z</time>
      </trkpt>
      <trkpt lat="41.434641" lon="27.713867">
        <ele>136.787599</ele>
        <time>2026-05-12T09:19:42.917Z</time>
      </trkpt>
      <trkpt lat="41.434103" lon="27.718885">
        <ele>135.503591</ele>
        <time>2026-05-12T09:20:43.967Z</time>
      </trkpt>
      <trkpt lat="41.432775" lon="27.731947">
        <ele>136.484022</ele>
        <time>2026-05-12T09:23:37.707Z</time>
      </trkpt>
      <trkpt lat="41.432342" lon="27.735783">
        <ele>137.543717</ele>
        <time>2026-05-12T09:24:34.506Z</time>
      </trkpt>
      <trkpt lat="41.432078" lon="27.738558">
        <ele>137.049974</ele>
        <time>2026-05-12T09:25:08.721Z</time>
      </trkpt>
      <trkpt lat="41.431412" lon="27.745087">
        <ele>135.082700</ele>
        <time>2026-05-12T09:26:26.083Z</time>
      </trkpt>
      <trkpt lat="41.431396" lon="27.745232">
        <ele>135.179370</ele>
        <time>2026-05-12T09:26:28.330Z</time>
      </trkpt>
      <trkpt lat="41.431252" lon="27.746620">
        <ele>136.103598</ele>
        <time>2026-05-12T09:26:52.719Z</time>
      </trkpt>
      <trkpt lat="41.431067" lon="27.748387">
        <ele>137.421404</ele>
        <time>2026-05-12T09:27:25.182Z</time>
      </trkpt>
      <trkpt lat="41.430993" lon="27.749235">
        <ele>138.067904</ele>
        <time>2026-05-12T09:27:37.063Z</time>
      </trkpt>
      <trkpt lat="41.430991" lon="27.749518">
        <ele>138.278717</ele>
        <time>2026-05-12T09:27:40.471Z</time>
      </trkpt>
      <trkpt lat="41.430995" lon="27.749740">
        <ele>138.442587</ele>
        <time>2026-05-12T09:27:43.346Z</time>
      </trkpt>
      <trkpt lat="41.431046" lon="27.750001">
        <ele>138.641623</ele>
        <time>2026-05-12T09:27:47.188Z</time>
      </trkpt>
      <trkpt lat="41.431245" lon="27.750752">
        <ele>139.229408</ele>
        <time>2026-05-12T09:27:59.586Z</time>
      </trkpt>
      <trkpt lat="41.431437" lon="27.751439">
        <ele>139.770446</ele>
        <time>2026-05-12T09:28:12.034Z</time>
      </trkpt>
      <trkpt lat="41.431557" lon="27.751835">
        <ele>140.249697</ele>
        <time>2026-05-12T09:28:20.471Z</time>
      </trkpt>
      <trkpt lat="41.431614" lon="27.752029">
        <ele>140.551501</ele>
        <time>2026-05-12T09:28:24.999Z</time>
      </trkpt>
      <trkpt lat="41.431668" lon="27.752352">
        <ele>141.030838</ele>
        <time>2026-05-12T09:28:32.567Z</time>
      </trkpt>
      <trkpt lat="41.431753" lon="27.753160">
        <ele>142.212641</ele>
        <time>2026-05-12T09:28:48.898Z</time>
      </trkpt>
      <trkpt lat="41.431829" lon="27.753618">
        <ele>142.892079</ele>
        <time>2026-05-12T09:28:57.669Z</time>
      </trkpt>
      <trkpt lat="41.431905" lon="27.753993">
        <ele>143.422385</ele>
        <time>2026-05-12T09:29:04.662Z</time>
      </trkpt>
      <trkpt lat="41.431984" lon="27.754235">
        <ele>143.613484</ele>
        <time>2026-05-12T09:29:09.242Z</time>
      </trkpt>
      <trkpt lat="41.432241" lon="27.754793">
        <ele>144.087623</ele>
        <time>2026-05-12T09:29:19.834Z</time>
      </trkpt>
      <trkpt lat="41.432267" lon="27.754865">
        <ele>144.145483</ele>
        <time>2026-05-12T09:29:21.048Z</time>
      </trkpt>
      <trkpt lat="41.432798" lon="27.755822">
        <ele>145.007464</ele>
        <time>2026-05-12T09:29:39.792Z</time>
      </trkpt>
      <trkpt lat="41.432808" lon="27.755840">
        <ele>145.023684</ele>
        <time>2026-05-12T09:29:40.083Z</time>
      </trkpt>
      <trkpt lat="41.433161" lon="27.756491">
        <ele>145.369002</ele>
        <time>2026-05-12T09:29:51.712Z</time>
      </trkpt>
      <trkpt lat="41.433192" lon="27.756547">
        <ele>145.394500</ele>
        <time>2026-05-12T09:29:52.750Z</time>
      </trkpt>
      <trkpt lat="41.433291" lon="27.756733">
        <ele>145.478053</ele>
        <time>2026-05-12T09:29:56.120Z</time>
      </trkpt>
      <trkpt lat="41.433517" lon="27.757153">
        <ele>145.667419</ele>
        <time>2026-05-12T09:30:03.797Z</time>
      </trkpt>
      <trkpt lat="41.433910" lon="27.757938">
        <ele>146.012317</ele>
        <time>2026-05-12T09:30:16.765Z</time>
      </trkpt>
      <trkpt lat="41.434085" lon="27.758474">
        <ele>146.201905</ele>
        <time>2026-05-12T09:30:25.019Z</time>
      </trkpt>
      <trkpt lat="41.434168" lon="27.758825">
        <ele>146.321259</ele>
        <time>2026-05-12T09:30:30.464Z</time>
      </trkpt>
      <trkpt lat="41.434229" lon="27.759170">
        <ele>146.436209</ele>
        <time>2026-05-12T09:30:35.576Z</time>
      </trkpt>
      <trkpt lat="41.434256" lon="27.759327">
        <ele>146.488445</ele>
        <time>2026-05-12T09:30:37.838Z</time>
      </trkpt>
      <trkpt lat="41.434338" lon="27.759785">
        <ele>146.641146</ele>
        <time>2026-05-12T09:30:44.344Z</time>
      </trkpt>
      <trkpt lat="41.434431" lon="27.760227">
        <ele>146.792384</ele>
        <time>2026-05-12T09:30:50.786Z</time>
      </trkpt>
      <trkpt lat="41.434615" lon="27.761102">
        <ele>147.197863</ele>
        <time>2026-05-12T09:31:04.620Z</time>
      </trkpt>
      <trkpt lat="41.434796" lon="27.761950">
        <ele>147.591263</ele>
        <time>2026-05-12T09:31:17.517Z</time>
      </trkpt>
      <trkpt lat="41.434863" lon="27.762316">
        <ele>147.759364</ele>
        <time>2026-05-12T09:31:23.106Z</time>
      </trkpt>
      <trkpt lat="41.434928" lon="27.762669">
        <ele>147.917094</ele>
        <time>2026-05-12T09:31:28.805Z</time>
      </trkpt>
      <trkpt lat="41.434966" lon="27.762879">
        <ele>148.007112</ele>
        <time>2026-05-12T09:31:32.295Z</time>
      </trkpt>
      <trkpt lat="41.435100" lon="27.763503">
        <ele>148.277582</ele>
        <time>2026-05-12T09:31:42.191Z</time>
      </trkpt>
      <trkpt lat="41.435263" lon="27.764258">
        <ele>148.604966</ele>
        <time>2026-05-12T09:31:53.306Z</time>
      </trkpt>
      <trkpt lat="41.435295" lon="27.764409">
        <ele>148.670351</ele>
        <time>2026-05-12T09:31:55.649Z</time>
      </trkpt>
      <trkpt lat="41.435309" lon="27.764474">
        <ele>148.698532</ele>
        <time>2026-05-12T09:31:56.663Z</time>
      </trkpt>
      <trkpt lat="41.435674" lon="27.766264">
        <ele>149.264119</ele>
        <time>2026-05-12T09:32:22.459Z</time>
      </trkpt>
      <trkpt lat="41.435773" lon="27.766756">
        <ele>149.405112</ele>
        <time>2026-05-12T09:32:29.704Z</time>
      </trkpt>
      <trkpt lat="41.436045" lon="27.768055">
        <ele>149.908870</ele>
        <time>2026-05-12T09:32:48.987Z</time>
      </trkpt>
      <trkpt lat="41.436123" lon="27.768428">
        <ele>150.069724</ele>
        <time>2026-05-12T09:32:55.286Z</time>
      </trkpt>
      <trkpt lat="41.436458" lon="27.769873">
        <ele>150.458396</ele>
        <time>2026-05-12T09:33:17.817Z</time>
      </trkpt>
      <trkpt lat="41.438134" lon="27.775795">
        <ele>149.099720</ele>
        <time>2026-05-12T09:34:35.346Z</time>
      </trkpt>
      <trkpt lat="41.440482" lon="27.784034">
        <ele>138.823190</ele>
        <time>2026-05-12T09:36:09.282Z</time>
      </trkpt>
      <trkpt lat="41.440544" lon="27.784384">
        <ele>138.106213</ele>
        <time>2026-05-12T09:36:12.700Z</time>
      </trkpt>
      <trkpt lat="41.440769" lon="27.786341">
        <ele>133.375045</ele>
        <time>2026-05-12T09:36:30.628Z</time>
      </trkpt>
      <trkpt lat="41.440948" lon="27.786980">
        <ele>131.542063</ele>
        <time>2026-05-12T09:36:36.918Z</time>
      </trkpt>
      <trkpt lat="41.441102" lon="27.787284">
        <ele>130.556179</ele>
        <time>2026-05-12T09:36:40.403Z</time>
      </trkpt>
      <trkpt lat="41.442296" lon="27.788932">
        <ele>125.990430</ele>
        <time>2026-05-12T09:37:03.028Z</time>
      </trkpt>
      <trkpt lat="41.443364" lon="27.790466">
        <ele>121.630117</ele>
        <time>2026-05-12T09:37:23.215Z</time>
      </trkpt>
      <trkpt lat="41.443594" lon="27.790868">
        <ele>120.561483</ele>
        <time>2026-05-12T09:37:28.047Z</time>
      </trkpt>
      <trkpt lat="41.443760" lon="27.791274">
        <ele>119.535946</ele>
        <time>2026-05-12T09:37:32.509Z</time>
      </trkpt>
      <trkpt lat="41.443900" lon="27.791752">
        <ele>118.377595</ele>
        <time>2026-05-12T09:37:37.490Z</time>
      </trkpt>
      <trkpt lat="41.443982" lon="27.792222">
        <ele>117.288379</ele>
        <time>2026-05-12T09:37:42.235Z</time>
      </trkpt>
      <trkpt lat="41.444153" lon="27.793809">
        <ele>113.863996</ele>
        <time>2026-05-12T09:37:57.192Z</time>
      </trkpt>
      <trkpt lat="41.444251" lon="27.794579">
        <ele>112.385170</ele>
        <time>2026-05-12T09:38:04.559Z</time>
      </trkpt>
      <trkpt lat="41.444342" lon="27.795237">
        <ele>111.118252</ele>
        <time>2026-05-12T09:38:11.164Z</time>
      </trkpt>
      <trkpt lat="41.444392" lon="27.795757">
        <ele>110.373794</ele>
        <time>2026-05-12T09:38:16.713Z</time>
      </trkpt>
      <trkpt lat="41.444377" lon="27.795971">
        <ele>110.452775</ele>
        <time>2026-05-12T09:38:19.285Z</time>
      </trkpt>
      <trkpt lat="41.444211" lon="27.796739">
        <ele>110.746487</ele>
        <time>2026-05-12T09:38:31.164Z</time>
      </trkpt>
      <trkpt lat="41.444045" lon="27.797414">
        <ele>111.007535</ele>
        <time>2026-05-12T09:38:42.964Z</time>
      </trkpt>
      <trkpt lat="41.443806" lon="27.798372">
        <ele>111.599542</ele>
        <time>2026-05-12T09:39:00.182Z</time>
      </trkpt>
      <trkpt lat="41.443570" lon="27.798784">
        <ele>112.047815</ele>
        <time>2026-05-12T09:39:09.105Z</time>
      </trkpt>
      <trkpt lat="41.443346" lon="27.799275">
        <ele>112.544731</ele>
        <time>2026-05-12T09:39:18.700Z</time>
      </trkpt>
      <trkpt lat="41.443189" lon="27.799806">
        <ele>113.038216</ele>
        <time>2026-05-12T09:39:28.132Z</time>
      </trkpt>
      <trkpt lat="41.443029" lon="27.800566">
        <ele>113.753913</ele>
        <time>2026-05-12T09:39:40.911Z</time>
      </trkpt>
      <trkpt lat="41.442987" lon="27.800952">
        <ele>114.117113</ele>
        <time>2026-05-12T09:39:47.080Z</time>
      </trkpt>
      <trkpt lat="41.443009" lon="27.801116">
        <ele>114.272251</ele>
        <time>2026-05-12T09:39:49.565Z</time>
      </trkpt>
      <trkpt lat="41.443172" lon="27.801815">
        <ele>114.953908</ele>
        <time>2026-05-12T09:40:01.290Z</time>
      </trkpt>
      <trkpt lat="41.443200" lon="27.801978">
        <ele>115.109623</ele>
        <time>2026-05-12T09:40:04.343Z</time>
      </trkpt>
      <trkpt lat="41.443220" lon="27.802032">
        <ele>115.165709</ele>
        <time>2026-05-12T09:40:05.471Z</time>
      </trkpt>
      <trkpt lat="41.443402" lon="27.802349">
        <ele>115.551739</ele>
        <time>2026-05-12T09:40:13.311Z</time>
      </trkpt>
      <trkpt lat="41.443461" lon="27.802483">
        <ele>115.846861</ele>
        <time>2026-05-12T09:40:16.424Z</time>
      </trkpt>
      <trkpt lat="41.443581" lon="27.803000">
        <ele>116.874655</ele>
        <time>2026-05-12T09:40:27.670Z</time>
      </trkpt>
      <trkpt lat="41.443609" lon="27.803206">
        <ele>117.272236</ele>
        <time>2026-05-12T09:40:32.095Z</time>
      </trkpt>
      <trkpt lat="41.443557" lon="27.803543">
        <ele>117.925631</ele>
        <time>2026-05-12T09:40:39.133Z</time>
      </trkpt>
      <trkpt lat="41.443294" lon="27.804483">
        <ele>119.831023</ele>
        <time>2026-05-12T09:41:01.780Z</time>
      </trkpt>
      <trkpt lat="41.443215" lon="27.804770">
        <ele>120.468388</ele>
        <time>2026-05-12T09:41:08.769Z</time>
      </trkpt>
      <trkpt lat="41.443160" lon="27.805206">
        <ele>121.451917</ele>
        <time>2026-05-12T09:41:18.781Z</time>
      </trkpt>
      <trkpt lat="41.443136" lon="27.805795">
        <ele>122.764095</ele>
        <time>2026-05-12T09:41:32.115Z</time>
      </trkpt>
      <trkpt lat="41.443189" lon="27.806536">
        <ele>124.419952</ele>
        <time>2026-05-12T09:41:49.481Z</time>
      </trkpt>
      <trkpt lat="41.443333" lon="27.808286">
        <ele>128.128700</ele>
        <time>2026-05-12T09:42:29.744Z</time>
      </trkpt>
      <trkpt lat="41.443585" lon="27.812177">
        <ele>135.044744</ele>
        <time>2026-05-12T09:43:51.971Z</time>
      </trkpt>
      <trkpt lat="41.443645" lon="27.814186">
        <ele>137.092518</ele>
        <time>2026-05-12T09:44:25.492Z</time>
      </trkpt>
      <trkpt lat="41.443801" lon="27.818181">
        <ele>138.925633</ele>
        <time>2026-05-12T09:45:25.580Z</time>
      </trkpt>
      <trkpt lat="41.443908" lon="27.821050">
        <ele>139.777658</ele>
        <time>2026-05-12T09:46:02.537Z</time>
      </trkpt>
      <trkpt lat="41.444096" lon="27.826539">
        <ele>146.887982</ele>
        <time>2026-05-12T09:47:48.099Z</time>
      </trkpt>
      <trkpt lat="41.444181" lon="27.829028">
        <ele>149.501775</ele>
        <time>2026-05-12T09:48:33.347Z</time>
      </trkpt>
      <trkpt lat="41.444181" lon="27.829035">
        <ele>149.504504</ele>
        <time>2026-05-12T09:48:33.465Z</time>
      </trkpt>
      <trkpt lat="41.444442" lon="27.834851">
        <ele>151.668114</ele>
        <time>2026-05-12T09:49:55.574Z</time>
      </trkpt>
      <trkpt lat="41.444618" lon="27.839157">
        <ele>153.413463</ele>
        <time>2026-05-12T09:50:58.303Z</time>
      </trkpt>
      <trkpt lat="41.444687" lon="27.840929">
        <ele>154.615171</ele>
        <time>2026-05-12T09:51:25.120Z</time>
      </trkpt>
      <trkpt lat="41.444944" lon="27.848214">
        <ele>164.182434</ele>
        <time>2026-05-12T09:53:42.935Z</time>
      </trkpt>
      <trkpt lat="41.445127" lon="27.853312">
        <ele>172.430861</ele>
        <time>2026-05-12T09:55:28.001Z</time>
      </trkpt>
      <trkpt lat="41.445333" lon="27.858478">
        <ele>177.865656</ele>
        <time>2026-05-12T09:56:59.229Z</time>
      </trkpt>
      <trkpt lat="41.445493" lon="27.862897">
        <ele>178.849176</ele>
        <time>2026-05-12T09:58:02.515Z</time>
      </trkpt>
      <trkpt lat="41.445502" lon="27.863233">
        <ele>178.582533</ele>
        <time>2026-05-12T09:58:06.309Z</time>
      </trkpt>
      <trkpt lat="41.445606" lon="27.867150">
        <ele>173.265858</ele>
        <time>2026-05-12T09:58:45.835Z</time>
      </trkpt>
      <trkpt lat="41.445842" lon="27.871747">
        <ele>165.739626</ele>
        <time>2026-05-12T09:59:31.887Z</time>
      </trkpt>
      <trkpt lat="41.445876" lon="27.872328">
        <ele>165.158885</ele>
        <time>2026-05-12T09:59:38.052Z</time>
      </trkpt>
      <trkpt lat="41.445952" lon="27.875276">
        <ele>161.790063</ele>
        <time>2026-05-12T10:00:10.592Z</time>
      </trkpt>
      <trkpt lat="41.446036" lon="27.877407">
        <ele>159.091204</ele>
        <time>2026-05-12T10:00:31.583Z</time>
      </trkpt>
      <trkpt lat="41.446281" lon="27.883127">
        <ele>152.735594</ele>
        <time>2026-05-12T10:01:33.432Z</time>
      </trkpt>
      <trkpt lat="41.446472" lon="27.887712">
        <ele>147.988276</ele>
        <time>2026-05-12T10:02:22.305Z</time>
      </trkpt>
      <trkpt lat="41.446656" lon="27.892388">
        <ele>144.666382</ele>
        <time>2026-05-12T10:03:16.042Z</time>
      </trkpt>
      <trkpt lat="41.446665" lon="27.892595">
        <ele>144.502281</ele>
        <time>2026-05-12T10:03:18.439Z</time>
      </trkpt>
      <trkpt lat="41.446721" lon="27.893811">
        <ele>142.418506</ele>
        <time>2026-05-12T10:03:31.248Z</time>
      </trkpt>
      <trkpt lat="41.446696" lon="27.894503">
        <ele>140.530989</ele>
        <time>2026-05-12T10:03:37.673Z</time>
      </trkpt>
      <trkpt lat="41.446630" lon="27.894973">
        <ele>139.228214</ele>
        <time>2026-05-12T10:03:41.858Z</time>
      </trkpt>
      <trkpt lat="41.446437" lon="27.895531">
        <ele>137.553917</ele>
        <time>2026-05-12T10:03:47.134Z</time>
      </trkpt>
      <trkpt lat="41.446043" lon="27.896411">
        <ele>135.973496</ele>
        <time>2026-05-12T10:03:56.395Z</time>
      </trkpt>
      <trkpt lat="41.445608" lon="27.897382">
        <ele>134.276458</ele>
        <time>2026-05-12T10:04:08.807Z</time>
      </trkpt>
      <trkpt lat="41.445451" lon="27.897794">
        <ele>134.114042</ele>
        <time>2026-05-12T10:04:17.027Z</time>
      </trkpt>
      <trkpt lat="41.445192" lon="27.898136">
        <ele>134.787380</ele>
        <time>2026-05-12T10:04:26.679Z</time>
      </trkpt>
      <trkpt lat="41.445100" lon="27.898196">
        <ele>134.976595</ele>
        <time>2026-05-12T10:04:29.315Z</time>
      </trkpt>
      <trkpt lat="41.444964" lon="27.898396">
        <ele>135.350596</ele>
        <time>2026-05-12T10:04:34.564Z</time>
      </trkpt>
      <trkpt lat="41.444872" lon="27.898699">
        <ele>135.803380</ele>
        <time>2026-05-12T10:04:40.892Z</time>
      </trkpt>
      <trkpt lat="41.444744" lon="27.898909">
        <ele>136.178256</ele>
        <time>2026-05-12T10:04:46.258Z</time>
      </trkpt>
      <trkpt lat="41.444784" lon="27.899306">
        <ele>136.733058</ele>
        <time>2026-05-12T10:04:54.334Z</time>
      </trkpt>
      <trkpt lat="41.444802" lon="27.899482">
        <ele>136.979081</ele>
        <time>2026-05-12T10:04:57.932Z</time>
      </trkpt>
      <trkpt lat="41.444777" lon="27.899627">
        <ele>137.185669</ele>
        <time>2026-05-12T10:05:01.028Z</time>
      </trkpt>
      <trkpt lat="41.444654" lon="27.899949">
        <ele>137.784326</ele>
        <time>2026-05-12T10:05:08.761Z</time>
      </trkpt>
      <trkpt lat="41.444474" lon="27.900144">
        <ele>138.296737</ele>
        <time>2026-05-12T10:05:15.572Z</time>
      </trkpt>
      <trkpt lat="41.444305" lon="27.900421">
        <ele>138.888364</ele>
        <time>2026-05-12T10:05:23.688Z</time>
      </trkpt>
      <trkpt lat="41.443825" lon="27.901550">
        <ele>141.038438</ele>
        <time>2026-05-12T10:05:50.640Z</time>
      </trkpt>
      <trkpt lat="41.443783" lon="27.901658">
        <ele>141.149924</ele>
        <time>2026-05-12T10:05:52.887Z</time>
      </trkpt>
      <trkpt lat="41.443565" lon="27.902262">
        <ele>141.051273</ele>
        <time>2026-05-12T10:06:02.953Z</time>
      </trkpt>
      <trkpt lat="41.443380" lon="27.902981">
        <ele>140.939406</ele>
        <time>2026-05-12T10:06:11.622Z</time>
      </trkpt>
      <trkpt lat="41.443310" lon="27.903303">
        <ele>140.890067</ele>
        <time>2026-05-12T10:06:15.146Z</time>
      </trkpt>
      <trkpt lat="41.443052" lon="27.904476">
        <ele>141.151444</ele>
        <time>2026-05-12T10:06:28.948Z</time>
      </trkpt>
      <trkpt lat="41.442937" lon="27.905020">
        <ele>141.458740</ele>
        <time>2026-05-12T10:06:36.901Z</time>
      </trkpt>
      <trkpt lat="41.442834" lon="27.905488">
        <ele>141.723921</ele>
        <time>2026-05-12T10:06:45.157Z</time>
      </trkpt>
      <trkpt lat="41.442639" lon="27.906406">
        <ele>142.508791</ele>
        <time>2026-05-12T10:07:04.539Z</time>
      </trkpt>
      <trkpt lat="41.442619" lon="27.906525">
        <ele>142.706785</ele>
        <time>2026-05-12T10:07:07.065Z</time>
      </trkpt>
      <trkpt lat="41.442392" lon="27.907848">
        <ele>144.910240</ele>
        <time>2026-05-12T10:07:35.662Z</time>
      </trkpt>
      <trkpt lat="41.442208" lon="27.909942">
        <ele>147.910970</ele>
        <time>2026-05-12T10:08:15.729Z</time>
      </trkpt>
      <trkpt lat="41.442188" lon="27.910105">
        <ele>148.130515</ele>
        <time>2026-05-12T10:08:18.750Z</time>
      </trkpt>
      <trkpt lat="41.442015" lon="27.910991">
        <ele>149.316631</ele>
        <time>2026-05-12T10:08:35.611Z</time>
      </trkpt>
      <trkpt lat="41.441693" lon="27.912014">
        <ele>150.495894</ele>
        <time>2026-05-12T10:08:55.246Z</time>
      </trkpt>
      <trkpt lat="41.441682" lon="27.912223">
        <ele>150.718579</ele>
        <time>2026-05-12T10:08:58.756Z</time>
      </trkpt>
      <trkpt lat="41.441539" lon="27.912368">
        <ele>150.973255</ele>
        <time>2026-05-12T10:09:02.751Z</time>
      </trkpt>
      <trkpt lat="41.441146" lon="27.912974">
        <ele>151.814053</ele>
        <time>2026-05-12T10:09:16.412Z</time>
      </trkpt>
      <trkpt lat="41.440951" lon="27.913265">
        <ele>152.173395</ele>
        <time>2026-05-12T10:09:23.592Z</time>
      </trkpt>
      <trkpt lat="41.440892" lon="27.913363">
        <ele>152.289113</ele>
        <time>2026-05-12T10:09:26.045Z</time>
      </trkpt>
      <trkpt lat="41.440921" lon="27.913485">
        <ele>152.406943</ele>
        <time>2026-05-12T10:09:28.480Z</time>
      </trkpt>
      <trkpt lat="41.441000" lon="27.913505">
        <ele>152.505697</ele>
        <time>2026-05-12T10:09:30.413Z</time>
      </trkpt>
      <trkpt lat="41.441678" lon="27.914384">
        <ele>153.666819</ele>
        <time>2026-05-12T10:09:52.150Z</time>
      </trkpt>
      <trkpt lat="41.441930" lon="27.914078">
        <ele>154.008756</ele>
        <time>2026-05-12T10:10:00.333Z</time>
      </trkpt>
      <trkpt lat="41.442633" lon="27.915146">
        <ele>154.562326</ele>
        <time>2026-05-12T10:10:22.615Z</time>
      </trkpt>
      <trkpt lat="41.442450" lon="27.915401">
        <ele>154.699819</ele>
        <time>2026-05-12T10:10:27.659Z</time>
      </trkpt>
      <trkpt lat="41.443038" lon="27.916228">
        <ele>155.683305</ele>
        <time>2026-05-12T10:10:46.294Z</time>
      </trkpt>
      <trkpt lat="41.443245" lon="27.916519">
        <ele>156.168050</ele>
        <time>2026-05-12T10:10:52.825Z</time>
      </trkpt>
      <trkpt lat="41.443245" lon="27.916519">
        <ele>156.168050</ele>
        <time>2026-05-12T10:10:52.851Z</time>
      </trkpt>
      <trkpt lat="41.443245" lon="27.916519">
        <ele>156.168050</ele>
        <time>2026-05-12T10:10:52.851Z</time>
      </trkpt>
      <trkpt lat="41.443241" lon="27.916517">
        <ele>156.174935</ele>
        <time>2026-05-12T10:10:52.942Z</time>
      </trkpt>
      <trkpt lat="41.443138" lon="27.916671">
        <ele>156.424320</ele>
        <time>2026-05-12T10:10:56.251Z</time>
      </trkpt>
      <trkpt lat="41.442726" lon="27.917290">
        <ele>157.424570</ele>
        <time>2026-05-12T10:11:09.522Z</time>
      </trkpt>
      <trkpt lat="41.442275" lon="27.918019">
        <ele>157.786438</ele>
        <time>2026-05-12T10:11:24.677Z</time>
      </trkpt>
      <trkpt lat="41.441846" lon="27.918663">
        <ele>157.786438</ele>
        <time>2026-05-12T10:11:38.490Z</time>
      </trkpt>
      <trkpt lat="41.441567" lon="27.919135">
        <ele>157.786438</ele>
        <time>2026-05-12T10:11:48.127Z</time>
      </trkpt>
      <trkpt lat="41.441267" lon="27.919672">
        <ele>157.786438</ele>
        <time>2026-05-12T10:11:58.864Z</time>
      </trkpt>
      <trkpt lat="41.441245" lon="27.919714">
        <ele>157.786438</ele>
        <time>2026-05-12T10:11:59.685Z</time>
      </trkpt>
      <trkpt lat="41.441267" lon="27.919683">
        <ele>157.786438</ele>
        <time>2026-05-12T10:12:00.368Z</time>
      </trkpt>
    </trkseg>
  </trk>
</gpx>